0 FENGYUN 1C DEB
1 30105U 99025RJ  13281.36600128  .00000350  00000-0  16431-3 0  7427
2 30105 098.8906 314.7639 0211870 266.7726 210.7833 14.15503659347590
0 FENGYUN 1C DEB
1 30105U 99025RJ  13282.76887906  .00000319  00000-0  15141-3 0  7436
2 30105 098.8905 316.1643 0211906 262.7620 159.6037 14.15506700347798
0 FENGYUN 1C DEB
1 30105U 99025RJ  13284.04165828  .00000427  00000-0  19589-3 0  7442
2 30105 098.8903 317.4348 0211923 259.1251 165.4748 14.15507621347978
0 FENGYUN 1C DEB
1 30105U 99025RJ  13285.60883422  .00000460  00000-0  20932-3 0  7454
2 30105 098.8900 318.9993 0211960 254.6400 231.5618 14.15508322348199
0 FENGYUN 1C DEB
1 30105U 99025RJ  13286.79822919  .00000535  00000-0  24001-3 0  7464
2 30105 098.8896 320.1865 0212014 251.2424 172.5334 14.15509204348364
0 FENGYUN 1C DEB
1 30105U 99025RJ  13287.86111318  .00000560  00000-0  25039-3 0  7478
2 30105 098.8893 321.2474 0212037 248.2062 188.8234 14.15511497348511
0 FENGYUN 1C DEB
1 30105U 99025RJ  13288.99140568  .00000525  00000-0  23582-3 0  7485
2 30105 098.8890 322.3755 0212095 244.9778 188.6234 14.15514162348670
0 FENGYUN 1C DEB
1 30105U 99025RJ  13290.34553105  .00000508  00000-0  22904-3 0  7491
2 30105 098.8888 323.7269 0212131 241.1075 249.0583 14.15516134348863
0 FENGYUN 1C DEB
1 30105U 99025RJ  13291.40527310  .00000534  00000-0  23962-3 0  7504
2 30105 098.8887 324.7845 0212169 238.0831 249.3620 14.15516937349013
0 FENGYUN 1C DEB
1 30105U 99025RJ  13292.80628154  .00000677  00000-0  29808-3 0  7511
2 30105 098.8887 326.1825 0212223 234.0850 188.7228 14.15517696349210
0 FENGYUN 1C DEB
1 30105U 99025RJ  13294.00867218  .00000660  00000-0  29124-3 0  7525
2 30105 098.8886 327.3823 0212271 230.6497 195.9565 14.15519688349387
0 FENGYUN 1C DEB
1 30105U 99025RJ  13295.35164649  .00000636  00000-0  28124-3 0  7535
2 30105 098.8887 328.7223 0212348 226.8191 199.5866 14.15522190349577
